PROBA-1                 
1 26958U 01049B   26199.33219954  .00000908  00000+0  62244-4 0  9995
2 26958  97.9601 208.9551 0055451  19.3603 340.9713 15.07622024348311
CUTE-1 (CO-55)          
1 27844U 03031E   26199.29733931  .00000128  00000+0  74435-4 0  9993
2 27844  98.6744 207.4657 0010867  94.6885 265.5536 14.24352673196104
CUBESAT XI-IV (CO-57)   
1 27848U 03031J   26198.95002441  .00000107  00000+0  66203-4 0  9995
2 27848  98.6776 206.8106 0010632 112.1739 248.0569 14.23635431195756
APRIZESAT 4             
1 35684U 09041D   26199.14042872  .00000325  00000+0  45540-4 0  9996
2 35684  98.1402 275.0765 0042417 219.7639 140.0464 14.83916101915951
APRIZESAT 3             
1 35686U 09041F   26198.99424647  .00000407  00000+0  40685-4 0  9990
2 35686  98.2105 353.7018 0060725 326.5808  33.1585 14.96314840920987
PROBA-2                 
1 36037U 09059B   26199.25814860  .00000059  00000+0  24237-4 0  9998
2 36037  98.2462  22.1819 0013221 179.1974 180.9246 14.54874331886048
APRIZESAT 5             
1 37792U 11044E   26199.28642544  .00000350  00000+0  51657-4 0  9995
2 37792  98.2449 133.2100 0050673 262.4552  97.0901 14.81130225803399
APRIZESAT 6             
1 37793U 11044F   26198.57717800  .00000328  00000+0  53815-4 0  9998
2 37793  98.2335 109.6946 0042864 350.6351 130.9243 14.76958656801630
PROBA-V                 
1 39159U 13021A   26199.18492821  .00000003  00000+0  19179-4 0  9999
2 39159  98.3607 176.2647 0005141  53.0422 307.1228 14.23603620685528
APRIZESAT 7             
1 39416U 13066A   26199.28091902  .00000713  00000+0  75747-4 0  9991
2 39416  97.7723 152.0576 0037300 107.4902 253.0399 14.91623038685863
APRIZESAT 8             
1 39425U 13066K   26199.28298929  .00000360  00000+0  44989-4 0  9991
2 39425  97.8230 146.3203 0045770 181.6783 178.4288 14.87698849684291
BUGSAT-1 (TITA)         
1 40014U 14033E   26199.26140899  .00003269  00000+0  17293-3 0  9990
2 40014  98.0432 293.6348 0028940  75.8407 284.6036 15.15901061660545
SAUDISAT 4              
1 40016U 14033G   26199.22798919  .00000218  00000+0  35595-4 0  9997
2 40016  97.7622 344.2962 0044006 334.0914  25.8095 14.79577270650665
APRIZESAT 9             
1 40018U 14033J   26198.95418932  .00000299  00000+0  51208-4 0  9990
2 40018  97.9098 331.4070 0067500 101.2658 259.6146 14.74254654648098
APRIZESAT 10            
1 40019U 14033K   26198.94292872  .00000297  00000+0  54475-4 0  9990
2 40019  97.9685 325.2222 0078955 174.5865 185.6214 14.70912831646771
TECHDEMOSAT-1 (TDS-1)   
1 40076U 14037H   26199.23129014  .00003422  00000+0  19436-3 0  9997
2 40076  98.3830 194.5338 0007232 149.4673 210.6978 15.13703160652925
TECHNOSAT               
1 42829U 17042E   26199.16474853  .00001358  00000+0  99292-4 0  9995
2 42829  97.4322 355.6525 0017144 353.8283   6.2730 15.05120470491360
FLYING LAPTOP           
1 42831U 17042G   26199.31260757  .00001709  00000+0  13679-3 0  9995
2 42831  97.4823 353.6768 0019541  22.5475 337.6604 15.01324411491124
HAWK-A                  
1 43765U 18099H   26199.12558004  .00003517  00000+0  14155-3 0  9998
2 43765  97.3892 250.9620 0035035 173.7380 186.4303 15.24986598417817
HAWK-B                  
1 43794U 18099AN  26199.11860852  .00003071  00000+0  13136-3 0  9999
2 43794  97.3942 250.3049 0031675 191.7187 168.3317 15.23134334417743
HAWK-C                  
1 43799U 18099AT  26199.29329796  .00004549  00000+0  16275-3 0  9998
2 43799  97.3868 252.1947 0040616 172.9032 187.2792 15.28519507418660
SALSAT                  
1 46495U 20068K   26199.01462697  .00004061  00000+0  14177-3 0  9999
2 46495  97.8861 203.9671 0009495 182.8082 177.3106 15.30195257320078
HAWK-2C                 
1 47502U 21006CT  26199.12011265  .00003429  00000+0  10316-3 0  9993
2 47502  97.2259 242.8173 0008684  92.6255 267.5983 15.35010089304241
HAWK-2A                 
1 47505U 21006CW  26199.12229580  .00003951  00000+0  11846-3 0  9996
2 47505  97.2301 243.5152 0008220  95.9424 264.2757 15.35032145304247
HAWK-2B                 
1 47508U 21006CZ  26199.11557643  .00003952  00000+0  11800-3 0  9993
2 47508  97.2172 241.7920 0008767  94.2359 265.9887 15.35160219304240
HAWK-3B                 
1 48931U 21059BE  26199.09212460  .00031299  00000+0  23996-3 0  9998
2 48931  97.6632  38.7819 0004731 187.5925 172.5267 15.72043913282702
HAWK-3C                 
1 48948U 21059BX  26199.09180544  .00029344  00000+0  22507-3 0  9998
2 48948  97.6749  44.5200 0005037 187.8290 172.2895 15.72043790282703
HAWK-3A                 
1 48957U 21059CG  26199.09169414  .00030363  00000+0  23284-3 0  9997
2 48957  97.6693  41.6998 0004927 190.0290 170.0875 15.72042965282703
HAWK-5C                 
1 52754U 22057Y   26199.18711851  .00010517  00000+0  17410-3 0  9997
2 52754  97.6626   0.8827 0002501 332.5417  27.5703 15.52390365231154
HAWK-5B                 
1 52756U 22057AA  26199.12248197  .00010427  00000+0  17265-3 0  9999
2 52756  97.6638 359.1680 0003199 318.5187  41.5822 15.52385437231149
